ident,name,iso_country,country,municipality,latitude,longitude
LATI,Tirana International Airport Mother Teresa,AL,Albania,Tirana,41.41469955,19.72060013
DAAG,Houari Boumediene Airport,DZ,Algeria,Algiers,36.69100189,3.215409994
FNLU,Quatro de Fevereiro Airport,AO,Angola,Luanda,-8.85837,13.2312
SAEZ,Ministro Pistarini International Airport,AR,Argentina,Buenos Aires,-34.8222,-58.5358
UDYZ,Zvartnots International Airport,AM,Armenia,Yerevan,40.14730072,44.39590073
YBBN,Brisbane International Airport,AU,Australia,Brisbane,-27.38419914,153.1170044
YMML,Melbourne International Airport,AU,Australia,Melbourne,-37.673302,144.843002
YPAD,Adelaide International Airport,AU,Australia,Adelaide,-34.945,138.531006
YPPH,Perth International Airport,AU,Australia,Perth,-31.94029999,115.9670029
YSCB,Canberra International Airport,AU,Australia,Canberra,-35.30690002,149.1950073
YSSY,Sydney Kingsford Smith International Airport,AU,Australia,Sydney,-33.94609833,151.177002
LOWW,Vienna International Airport,AT,Austria,Vienna,48.11029816,16.56970024
UBBB,Heydar Aliyev International Airport,AZ,Azerbaijan,Baku,40.46749878,50.04669952
MYNN,Lynden Pindling International Airport,BS,Bahamas,Nassau,25.039,-77.466202
OBBI,Bahrain International Airport,BH,Bahrain,Manama,26.27079964,50.63359833
VGZR,Hazrat Shahjalal International Airport,BD,Bangladesh,Dhaka,23.843347,90.397783
UMMS,Minsk National Airport,BY,Belarus,Minsk,53.88249969,28.03070068
EBBR,Brussels Airport,BE,Belgium,Brussels,50.90140152,4.48443985
EBCI,Brussels South Charleroi Airport,BE,Belgium,Brussels,50.459202,4.45382
EBLG,LiËge Airport,BE,Belgium,LiËge,50.63740158,5.443220139
MZBZ,Philip S. W. Goldson International Airport,BZ,Belize,Belize City,17.53910065,-88.30819702
SLVR,Viru Viru International Airport,BO,Bolivia,Santa Cruz,-17.6448,-63.135399
LQSA,Sarajevo International Airport,BA,Bosnia and Herzegovina,Sarajevo,43.82460022,18.3314991
FBSK,Sir Seretse Khama International Airport,BW,Botswana,Gaborone,-24.555201,25.9182
SBBE,Val de Cans/J˙lio Cezar Ribeiro International Airport,BR,Brazil,BelÈm,-1.37925005,-48.47629929
SBBR,Presidente Juscelino Kubistschek International Airport,BR,Brazil,Brasilia,-15.86916733,-47.92083359
SBCF,Tancredo Neves International Airport,BR,Brazil,Belo Horizonte,-19.62444305,-43.9719429
SBCT,Afonso Pena Airport,BR,Brazil,Curitiba,-25.5284996,-49.17580032
SBFL,HercÌlio Luz International Airport,BR,Brazil,FlorianÛpolis,-27.67027855,-48.55250168
SBGL,Rio Gale„o-Tom Jobim International Airport,BR,Brazil,Rio De Janeiro,-22.80999947,-43.25055695
SBGR,Guarulhos - Governador AndrÈ Franco Montoro International Airport,BR,Brazil,S„o Paulo,-23.43555641,-46.47305679
SBSG,Governador AluÌzio Alves International Airport,BR,Brazil,Natal,-5.768056,-35.376111
SBSP,Congonhas Airport,BR,Brazil,S„o Paulo,-23.62611008,-46.65638733
SBSV,Deputado Luiz Eduardo Magalh„es International Airport,BR,Brazil,Salvador,-12.9086113,-38.32249832
WBSB,Brunei International Airport,BN,Brunei Darussalam,Bandar Seri Begawan,4.944200039,114.9280014
LBBG,Burgas Airport,BG,Bulgaria,Burgas,42.56959915,27.51519966
LBSF,Sofia Airport,BG,Bulgaria,Sofia,42.69669342,23.41143608
LBWN,Varna Airport,BG,Bulgaria,Varna,43.232101,27.8251
DFFD,Ouagadougou Airport,BF,Burkina Faso,Ouagadougou,12.3532,-1.51242
GVAC,AmÌlcar Cabral International Airport,CV,Cabo Verde,Espargos,16.7414,-22.9494
VDPP,Phnom Penh International Airport,KH,Cambodia,Phnom Penh,11.54660034,104.8440018
VDSR,Siem Reap International Airport,KH,Cambodia,Siem Reap,13.41069984,103.8130035
CYEG,Edmonton International Airport,CA,Canada,Edmonton,53.30970001,-113.5800018
CYHZ,Halifax / Stanfield International Airport,CA,Canada,Halifax,44.88079834,-63.50859833
CYOW,Ottawa Macdonald-Cartier International Airport,CA,Canada,Ottawa,45.32249832,-75.66919708
CYUL,Montreal / Pierre Elliott Trudeau International Airport,CA,Canada,MontrÈal,45.47060013,-73.74079895
CYVR,Vancouver International Airport,CA,Canada,Vancouver,49.19390106,-123.1839981
CYWG,Winnipeg / James Armstrong Richardson International Airport,CA,Canada,Winnipeg,49.90999985,-97.23989868
CYYC,Calgary International Airport,CA,Canada,Calgary,51.11389923,-114.0199966
CYYJ,Victoria International Airport,CA,Canada,Victoria,48.64690018,-123.4260025
CYYT,St. John's International Airport,CA,Canada,St. John's,47.61859894,-52.75189972
CYYZ,Lester B. Pearson International Airport,CA,Canada,Toronto,43.67720032,-79.63059998
MWCR,Owen Roberts International Airport,KY,Cayman Islands,Georgetown,19.2928009,-81.35769653
FTTJ,N'Djamena International Airport,TD,Chad,N'Djamena,12.1337,15.034
SCEL,Comodoro Arturo Merino BenÌtez International Airport,CL,Chile,Santiago,-33.39300156,-70.78579712
ZBAA,Beijing Capital International Airport,CN,China,Beijing,40.08010101,116.5849991
ZBAD,Beijing Daxing International Airport,CN,China,Beijing,39.509945,116.41092
ZBHH,Baita International Airport,CN,China,Hohhot,40.851398,111.823997
ZBNY,Beijing Nanyuan Airport,CN,China,Beijing,39.78279877,116.3880005
ZBTJ,Tianjin Binhai International Airport,CN,China,Tianjin,39.12440109,117.3460007
ZBYN,Taiyuan Wusu Airport,CN,China,Taiyuan,37.74689865,112.6279984
ZGGG,Guangzhou Baiyun International Airport,CN,China,Guangzhou,23.39240074,113.2990036
ZGHA,Changsha Huanghua International Airport,CN,China,Changsha,28.18919945,113.2200012
ZGKL,Guilin Liangjiang International Airport,CN,China,Guilin City,25.21809959,110.0390015
ZGNN,Nanning Wuxu Airport,CN,China,Nanning,22.60829926,108.1719971
ZGSZ,Shenzhen Bao'an International Airport,CN,China,Shenzhen,22.63929939,113.810997
ZHCC,Zhengzhou Xinzheng International Airport,CN,China,Zhengzhou,34.5196991,113.8410034
ZHHH,Wuhan Tianhe International Airport,CN,China,Wuhan,30.7838,114.208
ZJHK,Haikou Meilan International Airport,CN,China,Haikou,19.93490028,110.4589996
ZJSY,Sanya Phoenix International Airport,CN,China,Sanya,18.30290031,109.4120026
ZLXY,Xi'an Xianyang International Airport,CN,China,Xi'an,34.447102,108.751999
ZPPP,Kunming Changshui International Airport,CN,China,Kunming,25.1019444,102.9291667
ZSAM,Xiamen Gaoqi International Airport,CN,China,Xiamen,24.54400063,118.1279984
ZSFZ,Fuzhou Changle International Airport,CN,China,Fuzhou,25.93510056,119.663002
ZSHC,Hangzhou Xiaoshan International Airport,CN,China,Hangzhou,30.22949982,120.4339981
ZSJN,Yaoqiang Airport,CN,China,Jinan,36.85720062,117.2160034
ZSNB,Ningbo Lishe International Airport,CN,China,Ningbo,29.82670021,121.461998
ZSNJ,Nanjing Lukou Airport,CN,China,Nanjing,31.74200058,118.8619995
ZSPD,Shanghai Pudong International Airport,CN,China,Shanghai,31.14340019,121.8050003
ZSSS,Shanghai Hongqiao International Airport,CN,China,Shanghai,31.19790077,121.3359985
ZSWZ,Wenzhou Longwan International Airport,CN,China,Wenzhou,27.912201,120.851997
ZUCK,Chongqing Jiangbei International Airport,CN,China,Chongqing,29.71920013,106.6419983
ZUGY,Longdongbao Airport,CN,China,Guiyang,26.53849983,106.8010025
ZUUU,Chengdu Shuangliu International Airport,CN,China,Chengdu,30.57850075,103.9469986
ZWWW,Diwopu International Airport,CN,China,Ürümqi,43.90710068,87.47419739
ZYHB,Taiping Airport,CN,China,Harbin,45.62340164,126.25
ZYTL,Zhoushuizi Airport,CN,China,Dalian,38.96569824,121.5390015
ZYTX,Taoxian Airport,CN,China,Shenyang,41.63980103,123.4830017
SKBO,El Dorado International Airport,CO,Colombia,Bogota,4.70159,-74.1469
FZAA,Ndjili International Airport,CD,Congo DR,Kinshasa,-4.38575,15.4446
NCRG,Rarotonga International Airport,CK,Cook Islands,Avarua,-21.20269966,-159.8059998
MRLB,Daniel Oduber Quiros International Airport,CR,Costa Rica,Liberia,10.5933,-85.544403
LDZA,Zagreb Airport,HR,Croatia,Zagreb,45.74290085,16.06879997
MUHA,JosÈ MartÌ International Airport,CU,Cuba,Havana,22.98920059,-82.40910339
MUVR,Juan Gualberto Gomez International Airport,CU,Cuba,Varadero,23.03440094,-81.43530273
LCLK,Larnaca International Airport,CY,Cyprus,Larnarca,34.87509918,33.62490082
LCPH,Paphos International Airport,CY,Cyprus,Paphos,34.7179985,32.4856987
LKPR,V·clav Havel Airport Prague,CZ,Czechia,Prague,50.1008,14.26
EKBI,Billund Airport,DK,Denmark,Billund,55.74029922,9.151780128
EKCH,Copenhagen Kastrup Airport,DK,Denmark,Copenhagen,55.61790085,12.65600014
EKYT,Aalborg Airport,DK,Denmark,Aalborg,57.09275891,9.849243164
MDPC,Punta Cana International Airport,DO,Dominican Republic,Punta Cana,18.56739998,-68.36340332
MDSD,Las AmÈricas International Airport,DO,Dominican Republic,Santo Domingo,18.42970085,-69.66889954
SELT,Cotopaxi International Airport,EC,Ecuador,Latacunga,-0.906833,-78.615799
SEQM,Mariscal Sucre International Airport,EC,Ecuador,Quito,-0.129166667,-78.3575
HECA,Cairo International Airport,EG,Egypt,Cairo,30.12190056,31.40559959
HEGN,Hurghada International Airport,EG,Egypt,Hurghada,27.17830086,33.79940033
HELX,Luxor International Airport,EG,Egypt,Luxor,25.671,32.7066
MSLP,MonseÒor ”scar Arnulfo Romero International Airport,SV,El Salvador,San Salvador,13.4409,-89.055702
EETN,Lennart Meri Tallinn Airport,EE,Estonia,Tallinn,59.41329956,24.83279991
HAAB,Addis Ababa Bole International Airport,ET,Ethiopia,Addis Ababa,8.977890015,38.79930115
EFHK,Helsinki Vantaa Airport,FI,Finland,Helsinki,60.31719971,24.9633007
LFBD,Bordeaux-MÈrignac Airport,FR,France,Bordeaux/MÈrignac,44.82830048,-0.715556026
LFBO,Toulouse-Blagnac Airport,FR,France,Toulouse/Blagnac,43.629101,1.36382
LFLL,Lyon Saint-ExupÈry Airport,FR,France,Lyon,45.725556,5.081111
LFML,Marseille Provence Airport,FR,France,Marseille,43.43927192,5.221424103
LFMN,Nice-CÙte d'Azur Airport,FR,France,Nice,43.65840149,7.215869904
LFOA,Avord (BA 702) Air Base,FR,France,Avord,47.053299,2.6325
LFPG,Charles de Gaulle International Airport,FR,France,Paris,49.012798,2.55
LFPO,Paris-Orly Airport,FR,France,Paris,48.7233333,2.3794444
LFSB,EuroAirport Basel-Mulhouse-Freiburg Airport,FR,France,Mulhouse,47.59,7.5291667
NTAA,Faa'a International Airport,PF,French Polynesia,Papeete,-17.553699,-149.606995
UGTB,Tbilisi International Airport,GE,Georgia,Tbilisi,41.6692009,44.95470047
EDDB,Berlin-Sch¯nefeld Airport,DE,Germany,Berlin,52.380001,13.5225
EDDC,Dresden Airport,DE,Germany,Dresden,51.13280106,13.76720047
EDDF,Frankfurt am Main Airport,DE,Germany,Frankfurt am Main,50.033333,8.570556
EDDG,M¸nster Osnabr¸ck Airport,DE,Germany,M¸nster,52.13460159,7.684830189
EDDH,Hamburg Airport,DE,Germany,Hamburg,53.63040161,9.988229752
EDDK,Cologne Bonn Airport,DE,Germany,Cologne,50.86589813,7.142739773
EDDL,D¸sseldorf Airport,DE,Germany,D¸sseldorf,51.289501,6.76678
EDDM,Munich Airport,DE,Germany,Munich,48.353802,11.7861
EDDN,Nuremberg Airport,DE,Germany,Nuremberg,49.498699,11.078056
EDDP,Leipzig/Halle Airport,DE,Germany,Leipzig,51.423889,12.236389
EDDS,Stuttgart Airport,DE,Germany,Stuttgart,48.68989944,9.221960068
EDDT,Berlin-Tegel Airport,DE,Germany,Berlin,52.5597,13.2877
EDDV,Hannover Airport,DE,Germany,Hannover,52.46110153,9.685079575
EDDW,Bremen Airport,DE,Germany,Bremen,53.04750061,8.786669731
EDLW,Dortmund Airport,DE,Germany,Dortmund,51.5182991,7.612239838
EDSB,Karlsruhe Baden-Baden Airport,DE,Germany,Baden-Baden,48.77939987,8.080499649
ETAR,Ramstein Air Base,DE,Germany,Ramstein,49.43690109,7.600279808
DGAA,Kotoka International Airport,GH,Ghana,Accra,5.6051898,-0.166786
LGAV,Eleftherios Venizelos International Airport,GR,Greece,Athens,37.93640137,23.94449997
LGIR,Heraklion International Nikos Kazantzakis Airport,GR,Greece,Heraklion,35.33969879,25.18029976
LGTS,Thessaloniki Macedonia International Airport,GR,Greece,Thessaloniki,40.5196991,22.97089958
TFFR,Pointe-‡†-Pitre Le Raizet,GP,Guadeloupe,Pointe-‡†-Pitre,16.265301,-61.531799
PGUM,Antonio B. Won Pat International Airport,GU,Guam,Guam International Airport,13.48340034,144.7960052
MGGT,La Aurora Airport,GT,Guatemala,Guatemala City,14.5833,-90.527496
VHHH,Hong Kong International Airport,HK,Hong Kong,Hong Kong,22.308901,113.915001
LHBP,Budapest Liszt Ferenc International Airport,HU,Hungary,Budapest,47.42976,19.261093
BIKF,Keflavik International Airport,IS,Iceland,ReykjavÌk,63.98500061,-22.60560036
VABB,Chhatrapati Shivaji International Airport,IN,India,Mumbai,19.08869934,72.86789703
VAGO,Dabolim Airport,IN,India,Vasco da Gama,15.38080025,73.83139801
VECC,Netaji Subhash Chandra Bose International Airport,IN,India,Kolkata,22.65469933,88.44670105
VIAR,Sri Guru Ram Dass Jee International Airport,IN,India,Amritsar,31.70960045,74.79730225
VIDP,Indira Gandhi International Airport,IN,India,New Delhi,28.5665,77.103104
VOBL,Kempegowda International Airport,IN,India,Bangalore,13.1979,77.706299
VOCI,Cochin International Airport,IN,India,Kochi,10.152,76.401901
VOCL,Calicut International Airport,IN,India,Calicut,11.13679981,75.95529938
VOHS,Rajiv Gandhi International Airport,IN,India,Hyderabad,17.23131752,78.42985535
VOMM,Chennai International Airport,IN,India,Chennai,12.99000549,80.16929626
VOTV,Trivandrum International Airport,IN,India,Thiruvananthapuram,8.48211956,76.92009735
ID-0017,Sungai Siring International Airport,ID,Indonesia,Samarinda,-0.373611,117.255556
WAAA,Hasanuddin International Airport,ID,Indonesia,Ujung Pandang-Celebes Island,-5.061629772,119.5540009
WADD,Ngurah Rai (Bali) International Airport,ID,Indonesia,Denpasar-Bali Island,-8.748169899,115.1669998
WAJJ,Sentani International Airport,ID,Indonesia,Jayapura-Papua Island,-2.576950073,140.5160065
WARR,Juanda International Airport,ID,Indonesia,Surabaya,-7.379829884,112.7870026
WAXX,Dominique Edward Osok Airport,ID,Indonesia,Sorong-Papua Island,-0.894,131.287
WIII,Soekarno-Hatta International Airport,ID,Indonesia,Jakarta,-6.12556982,106.6559982
OIIE,Imam Khomeini International Airport,IR,Iran,Tehran,35.41609955,51.15219879
OIII,Mehrabad International Airport,IR,Iran,Tehran,35.68920135,51.31340027
OIMM,Mashhad International Airport,IR,Iran,Mashhad,36.23519897,59.64099884
OISS,Shiraz Shahid Dastghaib International Airport,IR,Iran,Shiraz,29.53919983,52.58980179
OITT,Tabriz International Airport,IR,Iran,Tabriz,38.13389969,46.23500061
ORBI,Baghdad International Airport,IQ,Iraq,Baghdad,33.26250076,44.23460007
ORMM,Basrah International Airport,IQ,Iraq,Basrah,30.54910088,47.66210175
EICK,Cork Airport,IE,Ireland,Cork,51.84130096,-8.491109848
EIDW,Dublin Airport,IE,Ireland,Dublin,53.421299,-6.27007
EINN,Shannon Airport,IE,Ireland,Shannon,52.702,-8.92482
LLBG,Ben Gurion International Airport,IL,Israel,Tel Aviv,32.01139832,34.88669968
LLOV,Ovda International Airport,IL,Israel,Eilat,29.94029999,34.93579865
LIBD,Bari Karol Wojty?a Airport,IT,Italy,Bari,41.138901,16.760599
LICC,Catania-Fontanarossa Airport,IT,Italy,Catania,37.466801,15.0664
LICJ,Falcone Borsellino Airport,IT,Italy,Palermo,38.175999,13.091
LIEE,Cagliari Elmas Airport,IT,Italy,Cagliari,39.251499,9.05428
LIMC,Malpensa International Airport,IT,Italy,Milan,45.6306,8.72811
LIME,Il Caravaggio International Airport,IT,Italy,Bergamo,45.673901,9.70417
LIMF,Turin Airport,IT,Italy,Torino,45.200802,7.64963
LIMJ,Genoa Cristoforo Colombo Airport,IT,Italy,Genova,44.4133,8.8375
LIML,Milano Linate Airport,IT,Italy,Milan,45.445099,9.27674
LIPE,Bologna Guglielmo Marconi Airport,IT,Italy,Bologna,44.5354,11.2887
LIPH,Treviso-Sant'Angelo Airport,IT,Italy,Treviso,45.648399,12.1944
LIPX,Verona Villafranca Airport,IT,Italy,Verona,45.395699,10.8885
LIPZ,Venice Marco Polo Airport,IT,Italy,Venice,45.505299,12.3519
LIRA,Ciampino G. B. Pastine International Airport,IT,Italy,Rome,41.7994,12.5949
LIRF,Leonardo da Vinci Fiumicino Airport,IT,Italy,Rome,41.8002778,12.2388889
LIRN,Naples International Airport,IT,Italy,Napoli,40.886002,14.2908
LIRP,Pisa International Airport,IT,Italy,Pisa,43.683899,10.3927
MKJP,Norman Manley International Airport,JM,Jamaica,Kingston,17.93569946,-76.78749847
RJAA,Narita International Airport,JP,Japan,Tokyo,35.76470184,140.3860016
RJBB,Kansai International Airport,JP,Japan,Osaka,34.4272995,135.2440033
RJCC,New Chitose Airport,JP,Japan,Chitose / Tomakomai,42.77519989,141.6920013
RJFF,Fukuoka Airport,JP,Japan,Fukuoka,33.58589935,130.451004
RJFK,Kagoshima Airport,JP,Japan,Kagoshima,31.80340004,130.7189941
RJGG,Chubu Centrair International Airport,JP,Japan,Tokoname,34.85839844,136.8049927
rjns,Mt. Fuji Shizuoka Airport,JP,Japan,Makinohara / Shimada,34.79604347,138.1877518
RJOO,Osaka International Airport,JP,Japan,Osaka,34.78549957,135.4380035
RJTT,Tokyo Haneda International Airport,JP,Japan,Tokyo,35.552299,139.779999
RJTY,Yokota Air Base,JP,Japan,Fussa,35.74850082,139.3480072
ROAH,Naha Airport,JP,Japan,Naha,26.19580078,127.6460037
OJAI,Queen Alia International Airport,JO,Jordan,Amman,31.72260094,35.99319839
UAAA,Almaty Airport,KZ,Kazakhstan,Almaty,43.35210037,77.04049683
UACC,Astana International Airport,KZ,Kazakhstan,Astana,51.02220154,71.46690369
UAKK,Sary-Arka Airport,KZ,Kazakhstan,Karaganda,49.67079926,73.33439636
HKJK,Jomo Kenyatta International Airport,KE,Kenya,Nairobi,-1.319239974,36.92779922
HKMO,Mombasa Moi International Airport,KE,Kenya,Mombasa,-4.034830093,39.59420013
BKPR,Prishtina International Airport,XK,Kosovo,Prishtina,42.5728,21.035801
OKBK,Kuwait International Airport,KW,Kuwait,Kuwait City,29.22660065,47.96889877
UAFM,Manas International Airport,KG,Kyrgyzstan,Bishkek,43.06129837,74.4776001
EVRA,Riga International Airport,LV,Latvia,Riga,56.92359924,23.97109985
OLBA,Beirut Rafic Hariri International Airport,LB,Lebanon,Beirut,33.82089996,35.48839951
GLRB,Roberts International Airport,LR,Liberia,Monrovia,6.23379,-10.3623
HLLT,Tripoli International Airport,LY,Libya,Tripoli,32.66350174,13.1590004
EYVI,Vilnius International Airport,LT,Lithuania,Vilnius,54.634102,25.285801
ELLX,Luxembourg-Findel International Airport,LU,Luxembourg,Luxembourg,49.6233333,6.2044444
VMMC,Macau International Airport,MO,Macao,Macau,22.149599,113.592003
FMMI,Ivato Airport,MG,Madagascar,Antananarivo,-18.7969,47.478802
WMKK,Kuala Lumpur International Airport,MY,Malaysia,Kuala Lumpur,2.745579958,101.7099991
VRMM,MalÈ International Airport,MV,Maldives,MalÈ,4.191830158,73.52909851
GABS,Modibo Keita International Airport,ML,Mali,Bamako,12.5335,-7.94994
LMML,Malta International Airport,MT,Malta,Valletta,35.857498,14.4775
GQNO,Nouakchott Oumtounsy International Airport,MR,Mauritania,Nouakchott,18.31,-15.9697222
FIMP,Sir Seewoosagur Ramgoolam International Airport,MU,Mauritius,Port Louis,-20.430201,57.683601
MMAA,General Juan N Alvarez International Airport,MX,Mexico,Acapulco,16.75709915,-99.7539978
MMGL,Don Miguel Hidalgo Y Costilla International Airport,MX,Mexico,Guadalajara,20.52179909,-103.310997
MMHO,General Ignacio P. Garcia International Airport,MX,Mexico,Hermosillo,29.09589958,-111.0479965
MMMX,Licenciado Benito Juarez International Airport,MX,Mexico,Mexico City,19.4363,-99.072098
MMMY,General Mariano Escobedo International Airport,MX,Mexico,Monterrey,25.7784996,-100.1070023
MMPR,Licenciado Gustavo DÌaz Ordaz International Airport,MX,Mexico,Puerto Vallarta,20.68009949,-105.2539978
MMSD,Los Cabos International Airport,MX,Mexico,San JosÈ del Cabo,23.15180016,-109.7210007
MMTJ,General Abelardo L. RodrÌguez International Airport,MX,Mexico,Tijuana,32.54109955,-116.9700012
MMUN,Canc˙n International Airport,MX,Mexico,Canc˙n,21.03650093,-86.87709808
ZMUB,Chinggis Khaan International Airport,MN,Mongolia,Ulan Bator,47.843102,106.766998
LYPG,Podgorica Airport,ME,Montenegro,Podgorica,42.359402,19.2519
GMMN,Mohammed V International Airport,MA,Morocco,Casablanca,33.36750031,-7.589970112
FQMA,Maputo Airport,MZ,Mozambique,Maputo,-25.920799,32.572601
VYMD,Mandalay International Airport,MM,Myanmar,Mandalay,21.70219994,95.97789764
VYYY,Yangon International Airport,MM,Myanmar,Yangon,16.90730095,96.1332016
FYWH,Hosea Kutako International Airport,NA,Namibia,Windhoek,-22.4799,17.4709
VNKT,Tribhuvan International Airport,NP,Nepal,Kathmandu,27.6966,85.3591
EHAM,Amsterdam Airport Schiphol,NL,Netherlands,Amsterdam,52.308601,4.76389
EHEH,Eindhoven Airport,NL,Netherlands,Eindhoven,51.45009995,5.374529839
NZAA,Auckland International Airport,NZ,New Zealand,Auckland,-37.0080986,174.7920074
NZCH,Christchurch International Airport,NZ,New Zealand,Christchurch,-43.48939896,172.5319977
NZWN,Wellington International Airport,NZ,New Zealand,Wellington,-41.32720184,174.8049927
DRRN,Diori Hamani International Airport,NE,Niger,Niamey,13.4815,2.18361
DNAA,Nnamdi Azikiwe International Airport,NG,Nigeria,Abuja,9.006790161,7.263169765
DNAI,Akwa Ibom International Airport,NG,Nigeria,Uyo,4.8725,8.093
DNKN,Mallam Aminu International Airport,NG,Nigeria,Kano,12.0476,8.52462
DNMM,Murtala Muhammed International Airport,NG,Nigeria,Lagos,6.577370167,3.321160078
LWSK,Skopje Alexander the Great Airport,MK,North Macedonia,Skopje,41.961601,21.621401
ENBO,Bod¯è Airport,NO,Norway,Bod¯è,67.26920319,14.36530018
ENBR,Bergen Airport Flesland,NO,Norway,Bergen,60.29339981,5.218140125
ENGM,Oslo Gardermoen Airport,NO,Norway,Oslo,60.19390106,11.10039997
ENTC,Troms¯è Airport,NO,Norway,Troms¯è,69.6832962,18.91889954
ENVA,Trondheim Airport VÊrnes,NO,Norway,Trondheim,63.4578018,10.9239998
ENZV,Stavanger Airport Sola,NO,Norway,Stavanger,58.87670135,5.63778019
OM-0003,Duqm International Airport,OM,Oman,Duqm,19.501944,57.634167
OM-0004,Rustaq Airport,OM,Oman,Al Masna'ah,23.640556,57.4875
OOMS,Muscat International Airport,OM,Oman,Muscat,23.59329987,58.28440094
OPST,Sialkot Airport,PK,Pakistan,Sialkot,32.53555679,74.3638916
PK-0001,New Islamabad International Airport,PK,Pakistan,Islamabad,33.560713,72.851613
MPTO,Tocumen International Airport,PA,Panama,Tocumen,9.071359634,-79.38349915
AYPY,Port Moresby Jacksons International Airport,PG,Papua New Guinea,Port Moresby,-9.443380356,147.2200012
SPIM,Jorge Ch·vez International Airport,PE,Peru,Lima,-12.0219,-77.114305
SPZO,Alejandro Velasco Astete International Airport,PE,Peru,Cusco,-13.53569984,-71.938797
PH-0001,Laguindingan Airport,PH,Philippines,Cagayan de Oro City,8.612203,124.456496
PH-0073,Northern Cagayan International Airport,PH,Philippines,Lal-lo,18.182388,121.745853
RPLC,Diosdado Macapagal International Airport,PH,Philippines,Angeles/Mabalacat,15.186,120.559998
RPLL,Ninoy Aquino International Airport,PH,Philippines,Manila,14.5086,121.019997
RPMD,Francisco Bangoy International Airport,PH,Philippines,Davao City,7.125520229,125.6460037
RPVM,Mactan Cebu International Airport,PH,Philippines,Lapu-Lapu City,10.30749989,123.9789963
EPGD,Gda?sk Lech Wa??sa Airport,PL,Poland,Gda?sk,54.37760162,18.46619987
EPKK,KrakÛw John Paul II International Airport,PL,Poland,KrakÛw,50.077702,19.7848
EPKT,Katowice International Airport,PL,Poland,Katowice,50.4743,19.08
EPMO,Modlin Airport,PL,Poland,Warsaw,52.451099,20.6518
EPPO,Pozna?-?awica Airport,PL,Poland,Pozna?,52.42100143,16.82629967
EPWA,Warsaw Chopin Airport,PL,Poland,Warsaw,52.16569901,20.96710014
EPWR,Copernicus Wroc?aw Airport,PL,Poland,Wroc?aw,51.10269928,16.88579941
LPFR,Faro Airport,PT,Portugal,Faro,37.01440048,-7.965909958
LPLA,Lajes Airport,PT,Portugal,Praia da VitÛria,38.761799,-27.090799
LPPD,Jo„o Paulo II Airport,PT,Portugal,Ponta Delgada,37.74119949,-25.69790077
LPPR,Francisco de S· Carneiro Airport,PT,Portugal,Porto,41.24810028,-8.681389809
LPPT,Humberto Delgado Airport (Lisbon Portela Airport),PT,Portugal,Lisbon,38.7813,-9.13592
TJSJ,Luis Munoz Marin International Airport,PR,Puerto Rico,San Juan,18.43939972,-66.00180054
QA-0001,Hamad International Airport,QA,Qatar,Doha,25.273056,51.608056
LROP,Henri Coand? International Airport,RO,Romania,Bucharest,44.5711111,26.085
RU-0016,Lipetsk Air Base,RU,Russia,Lipetsk,52.63499832,39.44499969
RU-0035,Grozny North Airport,RU,Russia,Grozny,43.388302,45.698601
RU-2244,Ukrainka Air Base,RU,Russia,Belogorsk,51.169997,128.445007
RU-4464,Olenya Air Base,RU,Russia,Olenegorsk,68.15180206,33.46390152
UHHH,Khabarovsk-Novy Airport,RU,Russia,Khabarovsk,48.52799988,135.1880035
ULLI,Pulkovo Airport,RU,Russia,St. Petersburg,59.8003006,30.26250076
UNKL,Yemelyanovo Airport,RU,Russia,Krasnoyarsk,56.172901,92.493301
UNNT,Tolmachevo Airport,RU,Russia,Novosibirsk,55.01259995,82.65070343
URRP,Platov International Airport,RU,Russia,Rostov-on-Don,47.493888,39.924722
URSS,Sochi International Airport,RU,Russia,Sochi,43.449902,39.9566
USSS,Koltsovo Airport,RU,Russia,Yekaterinburg,56.74309921,60.80270004
UUBW,Zhukovsky International Airport,RU,Russia,Moscow,55.553299,38.150002
UUDD,Domodedovo International Airport,RU,Russia,Moscow,55.40879822,37.90629959
UUEE,Sheremetyevo International Airport,RU,Russia,Moscow,55.972599,37.4146
UUWW,Vnukovo International Airport,RU,Russia,Moscow,55.59149933,37.26150131
UWKD,Kazan International Airport,RU,Russia,Kazan,55.60620117,49.27870178
UWKG,Borisoglebskoye Airport,RU,Russia,Kazan,55.86669922,49.13330078
UWUU,Ufa International Airport,RU,Russia,Ufa,54.55749893,55.87440109
UWWW,Kurumoch International Airport,RU,Russia,Samara,53.50490189,50.16429901
HRYR,Kigali International Airport,RW,Rwanda,Kigali,-1.96863,30.1395
OEDF,King Fahd International Airport,SA,Saudi Arabia,Ad Dammam,26.47120094,49.79790115
OEJN,King Abdulaziz International Airport,SA,Saudi Arabia,Jeddah,21.6796,39.156502
OEMA,Prince Mohammad Bin Abdulaziz Airport,SA,Saudi Arabia,Medina,24.5534,39.705101
OERK,King Khaled International Airport,SA,Saudi Arabia,Riyadh,24.95759964,46.69879913
GOBD,Blaise Diagne International Airport,SN,Senegal,Dakar,14.67,-17.073333
GOOY,LÈopold SÈdar Senghor International Airport,SN,Senegal,Dakar,14.73970032,-17.49020004
LYBE,Belgrade Nikola Tesla Airport,RS,Serbia,Belgrade,44.81840134,20.3090992
FSIA,Seychelles International Airport,SC,Seychelles,Mahe Island,-4.67434,55.521801
GFLL,Lungi International Airport,SL,Sierra Leone,Freetown,8.61644,-13.1955
WSSS,Singapore Changi Airport,SG,Singapore,Singapore,1.35019,103.994003
TNCM,Princess Juliana International Airport,SX,Sint Maarten (Dutch part),Saint Martin,18.04100037,-63.10889816
LZIB,M. R. ätef·nik Airport,SK,Slovakia,Bratislava,48.17020035,17.21269989
LJLJ,Ljubljana Joûe Pu?nik Airport,SI,Slovenia,Ljubljana,46.223701,14.4576
FACT,Cape Town International Airport,ZA,South Africa,Cape Town,-33.96480179,18.60169983
FAGG,George Airport,ZA,South Africa,George,-34.0056,22.378902
FAJS,OR Tambo International Airport,ZA,South Africa,Johannesburg,-26.1392,28.246
FALE,King Shaka International Airport,ZA,South Africa,Durban,-29.61444444,31.11972222
FAOR,OR Tambo International Airport,ZA,South Africa,Johannesburg,-26.1392,28.246
JNB,O R Tambo International,ZA,South Africa,Johannesburg,-26.1392,28.246
RKJB,Muan International Airport,KR,South Korea,Piseo-ri (Muan),34.991406,126.382814
RKJK,Kunsan Air Base,KR,South Korea,Kunsan,35.90380096,126.6159973
RKPC,Jeju International Airport,KR,South Korea,Jeju City,33.51129913,126.4929962
RKPK,Gimhae International Airport,KR,South Korea,Busan,35.17950058,128.9380035
RKSI,Incheon International Airport,KR,South Korea,Seoul,37.46910095,126.4509964
RKSS,Gimpo International Airport,KR,South Korea,Seoul,37.5583,126.791
RKTU,Cheongju International Airport,KR,South Korea,Cheongju,36.717008,127.498741
HSSJ,Juba International Airport,SS,South Sudan,Juba,4.872010231,31.60110092
GCLA,La Palma Airport,ES,Spain,Sta Cruz de la Palma – La Palma Island,28.626499,-17.7556
GCLP,Gran Canaria Airport,ES,Spain,Gran Canaria Island,27.93190002,-15.38659954
GCTS,Tenerife South Airport,ES,Spain,Tenerife Island,28.04450035,-16.57250023
GCXO,Tenerife Norte Airport,ES,Spain,Tenerife Island,28.48270035,-16.34149933
LEAL,Alicante International Airport,ES,Spain,Alicante,38.28219986,-0.558156013
LEBL,Barcelona International Airport,ES,Spain,Barcelona,41.2971,2.07846
LEMD,Adolfo Su·rez Madrid Barajas Airport,ES,Spain,Madrid,40.471926,-3.56264
LEMG,M·laga Airport,ES,Spain,M·laga,36.67490005,-4.499110222
LEPA,Palma De Mallorca Airport,ES,Spain,Palma De Mallorca,39.55170059,2.738810062
LEST,Santiago de Compostela Airport,ES,Spain,Santiago de Compostela,42.89630127,-8.415140152
VCBI,Bandaranaike International Colombo Airport,LK,Sri Lanka,Colombo,7.180759907,79.88410187
HSSS,Khartoum International Airport,SD,Sudan,Khartoum,15.58950043,32.55319977
ESGG,Gothenburg-Landvetter Airport,SE,Sweden,Gothenburg,57.66279984,12.27980042
ESMS,Malmˆ Sturup Airport,SE,Sweden,Malmˆ,55.53630536,13.37619781
ESPA,LuleÂ Airport,SE,Sweden,LuleÂ,65.54380035,22.12199974
ESSA,Stockholm-Arlanda Airport,SE,Sweden,Stockholm,59.65190125,17.91860008
LSGG,Geneva Cointrin International Airport,CH,Switzerland,Geneva,46.23809814,6.108950138
LSZH,Z¸rich Airport,CH,Switzerland,Zurich,47.464699,8.54917
OSAP,Aleppo International Airport,SY,Syrian Arab Republic,Aleppo,36.18069839,37.22439957
OSDI,Damascus International Airport,SY,Syrian Arab Republic,Damascus,33.41149902,36.5155983
OSLK,Bassel Al-Assad International Airport,SY,Syrian Arab Republic,Latakia,35.40110016,35.94869995
RCBS,Kinmen Airport,TW,Taiwan,Shang-I,24.4279,118.359001
RCKH,Kaohsiung International Airport,TW,Taiwan,Kaohsiung City,22.57710075,120.3499985
RCTP,Taiwan Taoyuan International Airport,TW,Taiwan,Taipei,25.0777,121.233002
HTDA,Julius Nyerere International Airport,TZ,Tanzania,Dar es Salaam,-6.87811,39.202599
HTZA,Abeid Amani Karume International Airport,TZ,Tanzania,Zanzibar,-6.22202,39.224899
VTBD,Don Mueang International Airport,TH,Thailand,Bangkok,13.91259956,100.6070023
VTBS,Suvarnabhumi Airport,TH,Thailand,Bangkok,13.68109989,100.7470016
VTCC,Chiang Mai International Airport,TH,Thailand,Chiang Mai,18.76679993,98.96260071
VTSP,Phuket International Airport,TH,Thailand,Phuket,8.1132,98.316902
DTTA,Tunis Carthage International Airport,TN,Tunisia,Tunis,36.85100174,10.22719955
TN-0002,Enfidha - Hammamet International Airport,TN,Tunisia,Enfidha,36.075833,10.438611
LTAC,Esenbo?a International Airport,TR,Turkey,Ankara,40.12810135,32.99509811
LTAF,Adana Airport,TR,Turkey,Adana,36.98220062,35.28039932
LTAI,Antalya International Airport,TR,Turkey,Antalya,36.898701,30.800501
LTAJ,Gaziantep International Airport,TR,Turkey,Gaziantep,36.94720078,37.47869873
LTBA,Atat¸rk International Airport,TR,Turkey,Istanbul,40.976898,28.8146
LTBJ,Adnan Menderes International Airport,TR,Turkey,?zmir,38.29240036,27.15699959
LTBS,Dalaman International Airport,TR,Turkey,Dalaman,36.71310043,28.79249954
LTCE,Erzurum International Airport,TR,Turkey,Erzurum,39.95650101,41.17020035
LTCG,Trabzon International Airport,TR,Turkey,Trabzon,40.99509811,39.78969955
LTFC,S¸leyman Demirel International Airport,TR,Turkey,Isparta,37.85540009,30.36840057
LTFE,Milas Bodrum International Airport,TR,Turkey,Bodrum,37.25059891,27.66430092
LTFJ,Sabiha GˆkÁen International Airport,TR,Turkey,Istanbul,40.89860153,29.30920029
TR-0043,Istanbul Airport,TR,Turkey,Istanbul,41.275278,28.751944
TR-0044,«ukurova Airport,TR,Turkey,Tarsus,36.895545,35.069381
UTAA,Ashgabat International Airport,TM,Turkmenistan,Ashgabat,37.986801,58.361
HUEN,Entebbe International Airport,UG,Uganda,Kampala,0.042386,32.443501
UKBB,Boryspil International Airport,UA,Ukraine,Kiev,50.34500122,30.8946991
UKFF,Simferopol International Airport,UA,Ukraine,Simferopol,45.05220032,33.97510147
UKHH,Kharkiv International Airport,UA,Ukraine,Kharkiv,49.92480087,36.29000092
UKOO,Odessa International Airport,UA,Ukraine,Odessa,46.42679977,30.67650032
OMAA,Abu Dhabi International Airport,AE,United Arab Emirates,Abu Dhabi,24.43300056,54.65110016
OMDB,Dubai International Airport,AE,United Arab Emirates,Dubai,25.25279999,55.36439896
OMDW,Al Maktoum International Airport,AE,United Arab Emirates,Jebel Ali,24.896356,55.161389
OMSJ,Sharjah International Airport,AE,United Arab Emirates,Sharjah,25.32859993,55.51720047
EGAA,Belfast International Airport,GB,United Kingdom,Belfast,54.65750122,-6.215829849
EGAC,George Best Belfast City Airport,GB,United Kingdom,Belfast,54.61809921,-5.872499943
EGBB,Birmingham International Airport,GB,United Kingdom,Birmingham,52.45389938,-1.748029947
EGCC,Manchester Airport,GB,United Kingdom,Manchester,53.35369873,-2.274950027
EGCN,Robin Hood Doncaster Sheffield Airport,GB,United Kingdom,Doncaster,53.48053781,-1.010656357
EGFF,Cardiff International Airport,GB,United Kingdom,Cardiff,51.39670181,-3.343329906
EGGD,Bristol Airport,GB,United Kingdom,Bristol,51.382702,-2.71909
EGGP,Liverpool John Lennon Airport,GB,United Kingdom,Liverpool,53.33359909,-2.849720001
EGGW,London Luton Airport,GB,United Kingdom,London,51.87469864,-0.368333012
EGHH,Bournemouth Airport,GB,United Kingdom,Bournemouth,50.77999878,-1.842499971
EGHI,Southampton Airport,GB,United Kingdom,Southampton,50.95029831,-1.35679996
EGKK,London Gatwick Airport,GB,United Kingdom,London,51.148102,-0.190278
EGLL,London Heathrow Airport,GB,United Kingdom,London,51.4706,-0.461941
EGNM,Leeds Bradford Airport,GB,United Kingdom,Leeds,53.86589813,-1.660570025
EGNT,Newcastle Airport,GB,United Kingdom,Newcastle,55.03749847,-1.691669941
EGNX,East Midlands Airport,GB,United Kingdom,Nottingham,52.83110046,-1.328060031
EGPD,Aberdeen Dyce Airport,GB,United Kingdom,Aberdeen,57.20190048,-2.197779894
EGPF,Glasgow International Airport,GB,United Kingdom,Glasgow,55.87189865,-4.433060169
EGPH,Edinburgh Airport,GB,United Kingdom,Edinburgh,55.95000076,-3.372499943
EGSH,Norwich International Airport,GB,United Kingdom,Norwich,52.67580032,1.282780051
EGSS,London Stansted Airport,GB,United Kingdom,London,51.88499832,0.234999999
EGTE,Exeter International Airport,GB,United Kingdom,Exeter,50.7344017,-3.413889885
EGUL,RAF Lakenheath,GB,United Kingdom,Lakenheath,52.40930176,0.56099999
EGUN,RAF Mildenhall,GB,United Kingdom,Mildenhall,52.36190033,0.486405998
EGVA,RAF Fairford,GB,United Kingdom,Fairford,51.68220139,-1.790030003
EGVN,RAF Brize Norton,GB,United Kingdom,Brize Norton,51.75,-1.58362
LCRA,RAF Akrotiri,GB,United Kingdom,Akrotiri,34.590401,32.9879
SUMU,Carrasco International /General C L Berisso Airport,UY,Uruguay,Montevideo,-34.838402,-56.0308
UTTT,Tashkent International Airport,UZ,Uzbekistan,Tashkent,41.25790024,69.28119659
SVBC,General JosÈ Antonio Anzoategui International Airport,VE,Venezuela,Barcelona,10.111111,-64.692222
SVMI,SimÛn BolÌvar International Airport,VE,Venezuela,Caracas,10.601194,-66.991222
VVDN,Da Nang International Airport,VN,Viet Nam,Da Nang,16.04389954,108.1989975
VVNB,Noi Bai International Airport,VN,Viet Nam,Hanoi,21.22120094,105.8069992
VVTS,Tan Son Nhat International Airport,VN,Viet Nam,Ho Chi Minh City,10.81879997,106.6520004
FLLS,Kenneth Kaunda International Airport Lusaka,ZM,Zambia,Lusaka,-15.33080006,28.45260048
FVHA,Robert Gabriel Mugabe International Airport,ZW,Zimbabwe,Harare,-17.931801,31.0928
